[{"name":"DUBAISAT-1","line1":"1 35682U 09041B   26177.38200330  .00000875  00000+0  13705-3 0  9998","line2":"2 35682  98.0060 310.5393 0011292  47.1929 313.0227 14.75137265906453"},{"name":"OCEANSAT-2","line1":"1 35931U 09051A   26177.70717119 -.00000243  00000+0 -14026-3 0  9998","line2":"2 35931  98.2319 163.6086 0016005 207.4568 152.5754 13.99661391880664"},{"name":"WORLDVIEW-2 (WV-2)","line1":"1 35946U 09055A   26177.69708177 -.00000313  00000+0 -89126-4 0  9992","line2":"2 35946  98.4769 251.0156 0004288 178.6579 181.4620 14.37901891877015"},{"name":"SMOS","line1":"1 36036U 09059A   26177.50192633  .00000238  00000+0  89722-4 0  9997","line2":"2 36036  98.4425   4.7004 0001313  88.8684 271.2655 14.39777236874799"},{"name":"YAOGAN-7","line1":"1 36110U 09069A   26177.63437763  .00000453  00000+0  69736-4 0  9993","line2":"2 36110  98.0062  63.4426 0024912  12.1779 348.0029 14.78018524891024"},{"name":"TANDEM-X","line1":"1 36605U 10030A   26177.61088745  .00000281  00000+0  16557-4 0  9994","line2":"2 36605  97.4451 185.1838 0001782  93.2192 266.9246 15.19151603888078"},{"name":"CARTOSAT-2B","line1":"1 36795U 10035A   26177.74576684  .00000522  00000+0  78290-4 0  9997","line2":"2 36795  97.9954 228.2349 0011959 153.2524 206.9306 14.78671959861268"},{"name":"YAOGAN-10","line1":"1 36834U 10038A   26177.78071286  .00002298  00000+0  27321-3 0  9996","line2":"2 36834  97.8979 201.1085 0001772  84.6561 328.2650 14.85379037858632"},{"name":"COSMO-SKYMED 4","line1":"1 37216U 10060A   26177.76020307  .00000507  00000+0  70209-4 0  9997","line2":"2 37216  97.8891   1.2215 0001498  85.3636 274.7748 14.82153396845982"},{"name":"RESOURCESAT-2","line1":"1 37387U 11015A   26177.73146308  .00000078  00000+0  55557-4 0  9996","line2":"2 37387  98.7641 245.1073 0010523 225.3291 134.7029 14.21601946787532"},{"name":"HAIYANG-2A","line1":"1 37781U 11043A   26177.57575044  .00000023  00000+0  70444-4 0  9992","line2":"2 37781  99.3402 180.0435 0005019  73.9032 286.2669 13.74055066747942"},{"name":"RASAT","line1":"1 37791U 11044D   26177.79769573  .00000774  00000+0  14256-3 0  9991","line2":"2 37791  98.0576 269.0480 0020895 158.2618 319.6643 14.68175919794595"},{"name":"SRMSAT","line1":"1 37841U 11058D   26177.54557073  .00000370  00000+0  56800-4 0  9999","line2":"2 37841  19.9735   2.8256 0011714 307.2404  82.9527 14.11577357759146"},{"name":"PLEIADES 1A","line1":"1 38012U 11076F   26177.67863749  .00000576  00000+0  13376-3 0  9992","line2":"2 38012  98.1977 252.6544 0001779  89.9688  62.6095 14.58537349773371"},{"name":"ZIYUAN 1-02C (ZY 1-02C)","line1":"1 38038U 11079A   26177.62724652  .00000683  00000+0  23895-3 0  9993","line2":"2 38038  98.4072 244.7387 0005154 283.0586 244.8407 14.38222782760568"},{"name":"ARIRANG-3 (KOMPSAT-3)","line1":"1 38338U 12025B   26177.74982998  .00000403  00000+0  89321-4 0  9997","line2":"2 38338  98.1174 135.0449 0006813  85.5654 274.6326 14.62213912752740"},{"name":"EXACTVIEW-1 (ADS-1B)","line1":"1 38709U 12039C   26177.57948888  .00000091  00000+0  58546-4 0  9993","line2":"2 38709  98.9787 295.1822 0011607 140.5953 219.6071 14.24987136724046"},{"name":"SPOT 6","line1":"1 38755U 12047A   26177.73346250  .00000179  00000+0  48458-4 0  9994","line2":"2 38755  98.2120 244.9310 0001340  73.6744 286.4603 14.58527551734448"},{"name":"PLEIADES 1B","line1":"1 39019U 12068A   26177.68372211  .00000551  00000+0  12822-3 0  9990","line2":"2 39019  98.1947 252.6048 0001718  85.7073 274.4322 14.58566755722238"},{"name":"GOKTURK 2","line1":"1 39030U 12073A   26177.77802869  .00000637  00000+0  10047-3 0  9998","line2":"2 39030  97.6821  14.7288 0001220  57.5042 302.6286 14.75552049725922"},{"name":"LANDSAT 8","line1":"1 39084U 13008A   26177.70723183  .00000278  00000+0  71873-4 0  9996","line2":"2 39084  98.2299 247.7293 0001359  93.5528 266.5826 14.57100279699284"},{"name":"SARAL","line1":"1 39086U 13009A   26177.74737131  .00000078  00000+0  44617-4 0  9995","line2":"2 39086  98.5557   4.1934 0000709 231.6635 128.4485 14.32858091696970"},{"name":"GAOFEN-1","line1":"1 39150U 13018A   26177.75369088  .00000661  00000+0  10191-3 0  9997","line2":"2 39150  97.9094 249.6275 0015860 232.9466 127.0294 14.76546221709655"},{"name":"VNREDSAT 1","line1":"1 39160U 13021B   26177.72028522  .00000662  00000+0  13244-3 0  9997","line2":"2 39160  97.9081 230.7711 0001744  84.2309 275.9094 14.64866292701684"},{"name":"ARIRANG-5 (KOMPSAT-5)","line1":"1 39227U 13042A   26177.67688935  .00001776  00000+0  13114-3 0  9991","line2":"2 39227  97.6190   4.2436 0005135 100.4050 259.7755 15.04512439705286"},{"name":"SKYSAT-A","line1":"1 39418U 13066C   26177.38409187  .00002796  00000+0  16122-3 0  9992","line2":"2 39418  97.3811 226.4881 0019644 283.2736  76.6305 15.13021327689872"},{"name":"DUBAISAT-2","line1":"1 39419U 13066D   26177.61190130  .00004301  00000+0  26636-3 0  9999","line2":"2 39419  97.4560 167.5090 0011462  11.3020 348.8465 15.10248469687816"},{"name":"GPM-CORE","line1":"1 39574U 14009C   26177.59731168  .00010767  00000+0  23349-3 0  9999","line2":"2 39574  64.9721 276.6069 0011460 255.3681 104.6189 15.44763380699269"},{"name":"SENTINEL-1A","line1":"1 39634U 14016A   26177.62462867  .00000157  00000+0  43021-4 0  9997","line2":"2 39634  98.1780 185.0193 0001386  81.5511 278.5846 14.59200905651395"},{"name":"KAZEOSAT 1","line1":"1 39731U 14024A   26177.59676049  .00000450  00000+0  14989-3 0  9995","line2":"2 39731  98.3207 249.8103 0001238  74.6956 285.4371 14.42084466639919"}]