OBJECT_NAME,OBJECT_ID,EPOCH,MEAN_MOTION,ECCENTRICITY,INCLINATION,RA_OF_ASC_NODE,ARG_OF_PERICENTER,MEAN_ANOMALY,EPHEMERIS_TYPE,CLASSIFICATION_TYPE,NORAD_CAT_ID,ELEMENT_SET_NO,REV_AT_EPOCH,BSTAR,MEAN_MOTION_DOT,MEAN_MOTION_DDOT
DUBAISAT-1,2009-041B,2026-06-26T09:10:05.085120,14.75137265,.0011292,98.0060,310.5393,47.1929,313.0227,0,U,35682,999,90645,.13705E-3,.875E-5,0
OCEANSAT-2,2009-051A,2026-06-26T16:58:19.590816,13.99661391,.0016005,98.2319,163.6086,207.4568,152.5754,0,U,35931,999,88066,-.14026E-3,-.243E-5,0
WORLDVIEW-2 (WV-2),2009-055A,2026-06-26T16:43:47.864928,14.37901891,.0004288,98.4769,251.0156,178.6579,181.4620,0,U,35946,999,87701,-.89126E-4,-.313E-5,0
SMOS,2009-059A,2026-06-26T12:02:46.434912,14.39777236,.0001313,98.4425,4.7004,88.8684,271.2655,0,U,36036,999,87479,.89722E-4,.238E-5,0
YAOGAN-7,2009-069A,2026-06-26T15:13:30.227232,14.78018524,.0024912,98.0062,63.4426,12.1779,348.0029,0,U,36110,999,89102,.69736E-4,.453E-5,0
TANDEM-X,2010-030A,2026-06-26T14:39:40.675680,15.19151603,.0001782,97.4451,185.1838,93.2192,266.9246,0,U,36605,999,88807,.16557E-4,.281E-5,0
CARTOSAT-2B,2010-035A,2026-06-26T17:53:54.254976,14.78671959,.0011959,97.9954,228.2349,153.2524,206.9306,0,U,36795,999,86126,.7829E-4,.522E-5,0
YAOGAN-10,2010-038A,2026-06-26T18:44:13.591104,14.85379037,.0001772,97.8979,201.1085,84.6561,328.2650,0,U,36834,999,85863,.27321E-3,.2298E-4,0
COSMO-SKYMED 4,2010-060A,2026-06-26T18:14:41.545248,14.82153396,.0001498,97.8891,1.2215,85.3636,274.7748,0,U,37216,999,84598,.70209E-4,.507E-5,0
RESOURCESAT-2,2011-015A,2026-06-26T17:33:18.410112,14.21601946,.0010523,98.7641,245.1073,225.3291,134.7029,0,U,37387,999,78753,.55557E-4,.78E-6,0
HAIYANG-2A,2011-043A,2026-06-26T13:49:04.838016,13.74055066,.0005019,99.3402,180.0435,73.9032,286.2669,0,U,37781,999,74794,.70444E-4,.23E-6,0
RASAT,2011-044D,2026-06-26T19:08:40.911072,14.68175919,.0020895,98.0576,269.0480,158.2618,319.6643,0,U,37791,999,79459,.14256E-3,.774E-5,0
SRMSAT,2011-058D,2026-06-26T13:05:37.311072,14.11577357,.00117149,19.9735,2.8256,307.2404,82.9527,0,U,37841,999,75914,.56800397E-4,.37E-5,0
PLEIADES 1A,2011-076F,2026-06-26T16:17:14.279136,14.58537349,.00017792,98.1977,252.6544,89.9688,62.6095,0,U,38012,999,77337,.13375748E-3,.576E-5,0
ZIYUAN 1-02C (ZY 1-02C),2011-079A,2026-06-26T15:03:14.099328,14.38222782,.00051546,98.4072,244.7387,283.0586,244.8407,0,U,38038,999,76056,.23894633E-3,.683E-5,0
ARIRANG-3 (KOMPSAT-3),2012-025B,2026-06-26T17:59:45.310272,14.62213912,.0006813,98.1174,135.0449,85.5654,274.6326,0,U,38338,999,75274,.89321E-4,.403E-5,0
EXACTVIEW-1 (ADS-1B),2012-039C,2026-06-26T13:54:27.839232,14.24987136,.0011607,98.9787,295.1822,140.5953,219.6071,0,U,38709,999,72404,.58546E-4,.91E-6,0
SPOT 6,2012-047A,2026-06-26T17:36:11.160000,14.58527551,.000134,98.2120,244.9310,73.6744,286.4603,0,U,38755,999,73444,.48458E-4,.179E-5,0
PLEIADES 1B,2012-068A,2026-06-26T16:24:33.590304,14.58566755,.0001718,98.1947,252.6048,85.7073,274.4322,0,U,39019,999,72223,.12822E-3,.551E-5,0
GOKTURK 2,2012-073A,2026-06-26T18:40:21.678816,14.75552049,.000122,97.6821,14.7288,57.5042,302.6286,0,U,39030,999,72592,.10047E-3,.637E-5,0
LANDSAT 8,2013-008A,2026-06-26T16:58:24.830112,14.57100279,.0001359,98.2299,247.7293,93.5528,266.5826,0,U,39084,999,69928,.71873E-4,.278E-5,0
SARAL,2013-009A,2026-06-26T17:56:12.881184,14.32858091,.0000709,98.5557,4.1934,231.6635,128.4485,0,U,39086,999,69697,.44617E-4,.78E-6,0
GAOFEN-1,2013-018A,2026-06-26T18:05:18.892032,14.76546221,.001586,97.9094,249.6275,232.9466,127.0294,0,U,39150,999,70965,.10191E-3,.661E-5,0
VNREDSAT 1,2013-021B,2026-06-26T17:17:12.643008,14.64866292,.0001744,97.9081,230.7711,84.2309,275.9094,0,U,39160,999,70168,.13244E-3,.662E-5,0
ARIRANG-5 (KOMPSAT-5),2013-042A,2026-06-26T16:14:43.239840,15.04512439,.0005135,97.6190,4.2436,100.4050,259.7755,0,U,39227,999,70528,.13114E-3,.1776E-4,0
SKYSAT-A,2013-066C,2026-06-26T09:13:05.537568,15.13021327,.0019644,97.3811,226.4881,283.2736,76.6305,0,U,39418,999,68987,.16121881E-3,.2796E-4,0
DUBAISAT-2,2013-066D,2026-06-26T14:41:08.272320,15.10248469,.00114623,97.4560,167.5090,11.3020,348.8465,0,U,39419,999,68781,.26635643E-3,.4301E-4,0
GPM-CORE,2014-009C,2026-06-26T14:20:07.729152,15.44763380,.00114605,64.9721,276.6069,255.3681,104.6189,0,U,39574,999,69926,.23348957E-3,.10767E-3,0
SENTINEL-1A,2014-016A,2026-06-26T14:59:27.917088,14.59200905,.0001386,98.1780,185.0193,81.5511,278.5846,0,U,39634,999,65139,.43021469E-4,.157E-5,0
KAZEOSAT 1,2014-024A,2026-06-26T14:19:20.106336,14.42084466,.00012381,98.3207,249.8103,74.6956,285.4371,0,U,39731,999,63991,.14989246E-3,.45E-5,0
